THORAD DELTA 1 DEB
1 08596U 74089DK  06319.97868244 -.00000028 +00000-0 +10000-3 0 07884
2 08596 101.8777 316.0253 0087806 089.2857 271.8284 12.68235558480086
SL-8 R/B
1 08597U 76005B   06320.76666381  .00000049  00000-0  35220-4 0  7381
2 08597 082.9747 035.5942 0024184 213.6411 146.3210 13.74820068545913
NTS 1 AKM
1 08599U 74054C   06319.60807612 -.00000029 +00000-0 +10000-3 0 07950
2 08599 124.7014 204.9619 0073074 026.7015 333.7192 03.07183369165724
MOLNIYA 1-32
1 08601U 76006A   06320.31862562  .00000048  00000-0  10000-3 0  1525
2 08601 064.2409 337.4188 7139250 269.5133 015.9031 02.00064295225176
COSMOS 791
1 08607U 76008A   06319.53536746  .00000000  00000-0  10000-3 0  6586
2 08607 074.0569 353.6808 0055043 297.0804 062.4640 12.54947818411090
COSMOS 792
1 08608U 76008B   06319.88173390 -.00000000 +00000-0 +10000-3 0 06566
2 08608 074.0503 122.5745 0034702 104.0630 256.4281 12.50330273405956
COSMOS 793
1 08609U 76008C   06319.77075103 -.00000000  00000-0  10000-3 0  5668
2 08609 074.0483 060.5139 0046464 026.0917 334.2463 12.52552098408437
COSMOS 794
1 08610U 76008D   06320.75643103 -.00000001  00000-0  10000-3 0  6427
2 08610 074.0540 184.2118 0027064 191.5380 168.5052 12.48068501403524
COSMOS 795
1 08611U 76008E   06320.18546886 -.00000001  00000-0  10000-3 0  7392
2 08611 074.0523 250.6303 0020367 292.2919 067.5970 12.45708995400806
COSMOS 796
1 08612U 76008F   06319.52132541 -.00000001  00000-0  10000-3 0  5240
2 08612 074.0536 323.7342 0027044 047.2979 313.0339 12.43083915397774
COSMOS 797
1 08613U 76008G   06321.21420327 -.00000002  00000-0  10000-3 0  6200
2 08613 074.0552 029.7109 0031755 150.6329 209.6505 12.40607118395204
COSMOS 798
1 08614U 76008H   06319.88129901 -.00000002 +00000-0 +10000-3 0 06159
2 08614 074.0496 111.6972 0048098 248.5399 111.0509 12.37681691391753
SL-8 R/B
1 08615U 76008J   06320.14921258 -.00000003  00000-0  10000-3 0  7653
2 08615 074.0530 207.9533 0132861 072.8882 288.6653 12.20777052372739
INTELSAT 4A-F2
1 08620U 76010A   06317.56178647 -.00000316  00000-0  10000-3 0  9738
2 08620 013.8783 011.6776 0006866 136.0870 223.9389 00.99687464549341
ATLAS CENTAUR R/B
1 08621U 76010B   06318.87569258 -.00000245 +00000-0 +10000-3 0 06510
2 08621 021.9235 042.2181 7211290 200.5278 100.5630 02.20545045130764
COSMOS 800
1 08645U 76011A   06320.48937200  .00000036  00000-0  22609-4 0  2649
2 08645 082.9698 325.4194 0022784 046.6846 313.6212 13.71784783540884
SL-8 R/B
1 08646U 76011B   06320.45573809  .00000100  00000-0  90906-4 0  2645
2 08646 082.9659 298.5276 0003841 265.2374 094.8344 13.73660741542853
DELTA 1 DEB
1 08678U 75004F   06321.19493671  .00000171  00000-0  10285-3 0   413
2 08678 097.6598 198.0738 0179904 091.6998 270.4778 14.07978962631775
DELTA 1 DEB
1 08679U 75004G   06321.07889638  .00000853  00000-0  21887-3 0   498
2 08679 098.7916 195.6061 0262640 105.0393 258.0023 14.34324803626669
DELTA 1 DEB
1 08682U 75004J   06320.82999561  .00000126  00000-0  73305-4 0  1083
2 08682 097.8043 053.4087 0158267 280.8073 077.5323 14.15974297637159
DELTA 1 DEB
1 08685U 75004M   06320.72643113  .00000066  00000-0  28452-4 0  8133
2 08685 097.9196 018.9856 0051565 078.9115 281.7871 14.48026109673050
COSMOS 803
1 08688U 76014A   06320.43513243  .00000430  00000-0  25013-4 0  1932
2 08688 065.8502 109.1593 0033919 279.9728 079.7582 15.24925216694076
MARISAT 1
1 08697U 76017A   06318.56233875 -.00000157 +00000-0 +10000-3 0 05543
2 08697 014.0954 001.3318 0005231 015.4557 344.5446 00.99205236111121
SL-6 R/B(2)
1 08701U 76006D   06320.72035215 -.00000069  00000-0  10000-3 0  7652
2 08701 064.4191 243.8701 6684526 267.8457 020.5243 02.07458201233478
UME 1 (ISS 1)
1 08709U 76019A   06321.14518990 -.00000069  00000-0 -19434-4 0   393
2 08709 069.6733 272.4430 0011865 197.0688 163.0000 13.71068517536814
N-1 R/B
1 08710U 76019B   06320.22339181 -.00000036  00000-0  17823-4 0   546
2 08710 069.6739 310.2805 0014741 205.2478 154.7892 13.69710426535741
COSMOS 807
1 08744U 76022A   06321.11195395  .00001278  00000-0  77179-4 0  6772
2 08744 082.9419 041.7104 0664433 254.5281 098.1627 14.10149052528531
LES 8
1 08746U 76023A   06318.64049524 -.00000021  00000-0  10000-3 0  5663
2 08746 010.4328 176.2642 0011428 282.1129 077.9310 01.00269996 57948
LES 9
1 08747U 76023B   06321.08452454 -.00000024  00000-0  10000-3 0  6615
2 08747 010.3949 176.2849 0024162 283.7974 240.9863 01.00267284 57965
TITAN 3C TRANSTAGE R/B
1 08751U 76023F   06319.86127229 -.00000142  00000-0  10000-3 0  1292
2 08751 009.9491 185.3481 0134062 214.2891 145.0340 00.98264391112933
SL-8 DEB
1 08756U 74071C   06320.61328190  .00000305  00000-0  63524-4 0  1967
2 08756 074.0577 155.9513 0005535 274.3612 085.6868 14.64345478835889
SL-8 DEB
1 08757U 75094D   06320.18322190  .00000925  00000-0  15246-3 0  1022
2 08757 074.0327 010.0554 0001599 319.7703 040.3357 14.72014801839753
SL-8 DEB
1 08764U 70102E   06319.46760491 -.00000047 +00000-0 -21305-4 0 01676
2 08764 074.0337 128.1700 0022301 173.3841 186.7485 13.84229781811504
SATCOM 2
1 08774U 76029A   06319.35726985 -.00000133  00000-0  10000-3 0  8591
2 08774 013.9851 014.9822 0054866 046.4189 314.0215 00.98625617 48970
THORAD DELTA 1 DEB
1 08784U 74089DL  06321.10639361 -.00000020  00000-0  10000-3 0  2266
2 08784 100.7370 114.2668 0188273 058.4136 303.5233 12.61661158611285
THORAD DELTA 1 DEB
1 08785U 74089DM  06320.32137144 -.00000027  00000-0  10000-3 0  1505
2 08785 100.9890 277.2327 0262229 263.9208 093.1895 12.10696977214796
THORAD DELTA 1 DEB
1 08786U 74089DN  06320.13138253 -.00000032  00000-0  10000-3 0  1299
2 08786 102.2604 003.4301 0052186 078.2616 282.4298 12.43696317451028
THORAD DELTA 1 DEB
1 08788U 74089DQ  06319.88501910 -.00000033  00000-0  10000-3 0  9643
2 08788 102.2482 266.3526 0070913 256.9169 102.3973 12.39452462449011
THORAD DELTA 1 DEB
1 08789U 74089DR  06320.73672473 -.00000032  00000-0  10000-3 0  8292
2 08789 101.9912 025.8201 0105046 308.5765 050.5924 12.38801107446937
THORAD DELTA 1 DEB
1 08790U 74089DS  06321.05973089 -.00000027  00000-0  10000-3 0   114
2 08790 101.4661 000.8884 0045972 123.1874 237.3613 12.58342571469132
DELTA 1 DEB *
1 08791U 66087F   06320.62058207 -.00000026  00000-0  10000-3 0   278
2 08791 101.4821 007.6464 0141400 047.2576 314.0303 12.61558699842002
METEOR 1-24
1 08799U 76032A   06321.21451700  .00000047  00000-0  19147-4 0  6043
2 08799 081.2568 355.3065 0034733 350.4734 009.5774 14.11124561575384
SL-3 R/B
1 08800U 76032B   06320.65838170 -.00000107  00000-0 -65126-4 0  8873
2 08800 081.2528 016.1216 0096192 325.6494 033.8473 14.09679474573511
NATO 3A
1 08808U 76035A   06319.96676376 -.00000287  00000-0  10000-3 0  6993
2 08808 013.2873 359.5105 0025944 141.3282 218.8348 00.99847456675850
LAGEOS 1
1 08820U 76039A   06320.14541444 -.00000014  00000-0  10000-3 0  3513
2 08820 109.8417 249.0290 0043674 033.1574 327.1696 06.38664627456752
LAGEOS 1 AKM
1 08822U 76039C   06319.86019285 -.00000012  00000-0  10000-3 0  3489
2 08822 109.8438 251.7868 0042820 030.0693 330.2290 06.38864644712423
SL-3 DEB
1 08826U 71120C   06320.84045923  .00000283  00000-0  76516-4 0  4347
2 08826 081.2361 244.8073 0014335 299.5435 060.4317 14.45472758810038
SL-3 DEB
1 08827U 71120D   06319.51611118 +.00000098 +00000-0 +44503-4 0 08153
2 08827 081.2638 134.3001 0013093 147.4082 212.7897 14.14658355796357
NOAA 1 DEB *
1 08828U 70106C   06320.16101020 -.00000031  00000-0  10000-3 0  5188
2 08828 101.9164 008.1917 0031584 151.8174 208.4635 12.38185353625611
SL-8 DEB
1 08829U 74071D   06320.44131822  .00000494  00000-0  13483-3 0  4222
2 08829 074.0605 092.1279 0016747 293.0945 066.8443 14.49916117772783
TITAN 3C TRANSTAGE DEB
1 08832U 76023J   06317.97979350 -.00000254 +00000-0 +10000-3 0 00891
2 08832 009.9512 185.4308 0134877 212.7206 146.6116 00.98262181047292
COMSTAR 1
1 08838U 76042A   06319.27908700  .00000104  00000-0  10000-3 0  4059
2 08838 013.7737 012.3509 0006668 181.6981 178.2789 00.99820896 49216
ATLAS CENTAUR R/B
1 08840U 76042B   06319.00455645 +.00000040 +00000-0 -29567-3 0 06474
2 08840 021.1786 142.4785 7157435 175.3800 199.4740 02.22376729135298
METEOR 1-25
1 08845U 76043A   06321.24785289 -.00000048  00000-0 -33671-4 0  6896
2 08845 081.2590 078.4304 0040622 066.4409 294.1023 14.11051710716399
SL-3 R/B
1 08846U 76043B   06320.79134416  .00000002  00000-0 -64272-5 0  9621
2 08846 081.2295 107.3864 0039524 121.7985 238.7046 14.08275262566970
P 76-5
1 08860U 76047A   06319.72674982  .00000003  00000-0  60327-4 0  6756
2 08860 099.9073 351.8020 0041941 244.4168 115.2630 13.66889316518955
SCOUT B-1 R/B
1 08861U 76047B   06320.41890461  .00000015  00000-0  69737-4 0  9959
2 08861 099.3140 096.2177 0042287 063.9902 296.5598 13.65734639518471
SCOUT B-1 DEB
1 08867U 76047C   06320.32026707  .00000095  00000-0  19159-3 0  1579
2 08867 099.3877 070.7823 0075108 106.5141 254.4264 13.55703527506444
SCOUT B-1 DEB
1 08868U 76047D   06320.38016904  .00000058  00000-0  10438-3 0  2621
2 08868 100.0423 270.2632 0051391 012.1278 348.1094 13.79106834531149
COSMOS 823
1 08873U 76051A   06320.20237214  .00000025  00000-0  11335-4 0  3827
2 08873 082.9672 001.7105 0021735 325.1698 034.8030 13.73064058525702
SL-8 R/B
1 08874U 76051B   06321.13907386  .00000052  00000-0  39005-4 0  5326
2 08874 082.9606 338.6007 0022521 278.4800 081.3803 13.74644100527375
MARISAT 3
1 08882U 76053A   06320.29431808 -.00000180  00000-0  10000-3 0  1304
2 08882 015.3242 004.4064 0127886 148.8093 211.9377 00.95899858 52602
COSMOS 825
1 08889U 76054A   06321.22822973  .00000000  00000-0  10000-3 0  5633
2 08889 073.9953 285.5250 0058955 185.5626 174.4779 12.55645797394638
COSMOS 826
1 08890U 76054B   06320.69212626 -.00000002  00000-0  10000-3 0  7076
2 08890 073.9981 038.6616 0039292 135.8121 224.6073 12.38473582375529
